NORAD_CAT_ID,OBJECT_NAME,OBJECT_TYPE,EPOCH,MEAN_MOTION,ECCENTRICITY,INCLINATION,RA_OF_ASC_NODE,ARG_OF_PERICENTER,MEAN_ANOMALY,BSTAR,MEAN_MOTION_DOT,MEAN_MOTION_DDOT,TLE_LINE0,TLE_LINE1,TLE_LINE2,SEMIMAJOR_AXIS,PERIOD,APOGEE,PERIGEE,DECAYED
56457.0,STARLINK-5994,PAYLOAD,2024-05-03 20:42:41,14.98321664,0.0002592,70.0,45.9313,269.9748,90.1114,-8.274e-05,-1.08e-05,0.0,0 STARLINK-5994,1 56457U 23064K   24124.86297975 -.00001080  00000-0 -82740-4 0  9994,2 56457  70.0000  45.9313 0002592 269.9748  90.1114 14.98321664 54520,6950.219,96.108,573.885,570.282,0.0
56457.0,STARLINK-5994,PAYLOAD,2024-05-04 04:41:02,15.00186504,0.000555,70.0006,45.0846,294.9449,65.1134,0.020607,0.00268045,0.0,0 STARLINK-5994,1 56457U 23064K   24125.19516807  .00268045  00000-0  20607-1 0  9994,2 56457  70.0006  45.0846 0005550 294.9449  65.1134 15.00186504 54576,6944.458,95.988,570.177,562.469,0.0
56457.0,STARLINK-5994,PAYLOAD,2024-05-04 14:00:01,14.98294019,0.0003047,70.0025,44.1146,267.9564,16.666,0.0053214,0.00063924,0.0,0 STARLINK-5994,1 56457U 23064K   24125.58334491  .00063924  00000-0  53214-2 0  9994,2 56457  70.0025  44.1146 0003047 267.9564  16.6660 14.98294019 54625,6950.304,96.109,574.287,570.051,0.0
56457.0,STARLINK-5994,PAYLOAD,2024-05-05 03:09:14,14.98333181,0.0002878,70.0004,42.7343,264.646,95.4371,5.5988e-05,5.75e-06,0.0,0 STARLINK-5994,1 56457U 23064K   24126.13141644  .00000575  00000-0  55988-4 0  9997,2 56457  70.0004  42.7343 0002878 264.6460  95.4371 14.98333181 54713,6950.183,96.107,574.048,570.048,0.0
56457.0,STARLINK-5994,PAYLOAD,2024-05-05 04:45:22,14.98335365,0.0002812,70.0006,42.5658,264.379,95.7049,8.9858e-05,9.79e-06,0.0,0 STARLINK-5994,1 56457U 23064K   24126.19817463  .00000979  00000-0  89858-4 0  9993,2 56457  70.0006  42.5658 0002812 264.3790  95.7049 14.98335365 54365,6950.176,96.107,573.996,570.087,0.0
56457.0,STARLINK-5994,PAYLOAD,2024-05-05 20:46:20,14.98564895,0.0003682,70.0011,40.881,269.6899,90.3838,0.0024618,0.00029586,0.0,0 STARLINK-5994,1 56457U 23064K   24126.86551996  .00029586  00000-0  24618-2 0  9999,2 56457  70.0011  40.8810 0003682 269.6899  90.3838 14.98564895 54826,6949.467,96.092,573.89,568.773,0.0
56457.0,STARLINK-5994,PAYLOAD,2024-05-05 22:22:41,14.98384226,0.000403,69.999,40.7113,286.8706,73.2011,0.00034473,4.029e-05,0.0,0 STARLINK-5994,1 56457U 23064K   24126.93242083  .00004029  00000-0  34473-3 0  9997,2 56457  69.9990  40.7113 0004030 286.8706  73.2011 14.98384226 54472,6950.025,96.104,574.691,569.089,0.0
56457.0,STARLINK-5994,PAYLOAD,2024-05-06 03:12:21,14.97385144,0.0003011,70.0012,40.2125,181.242,178.8732,-0.011015,-0.00126073,0.0,0 STARLINK-5994,1 56457U 23064K   24127.13358403 -.00126073  00000-0 -11015-1 0  9995,2 56457  70.0012  40.2125 0003011 181.2420 178.8732 14.97385144 54861,6953.116,96.168,577.075,572.888,0.0
56457.0,STARLINK-5994,PAYLOAD,2024-05-06 14:00:01,14.98293056,0.0003182,70.0029,39.0726,265.9907,3.6294,0.0063757,0.00076747,0.0,0 STARLINK-5994,1 56457U 23064K   24127.58334491  .00076747  00000-0  63757-2 0  9996,2 56457  70.0029  39.0726 0003182 265.9907   3.6294 14.98293056 54927,6950.307,96.109,574.384,569.961,0.0
56457.0,STARLINK-5994,PAYLOAD,2024-05-06 20:49:40,14.97495117,0.0002833,70.0004,38.3599,247.2626,112.8233,-0.0098251,-0.00112991,0.0,0 STARLINK-5994,1 56457U 23064K   24127.86783088 -.00112991  00000-0 -98251-2 0  9998,2 56457  70.0004  38.3599 0002833 247.2626 112.8233 14.97495117 54975,6952.776,96.161,576.611,572.671,0.0
56457.0,STARLINK-5994,PAYLOAD,2024-05-07 06:00:00,14.98319879,0.0003229,70.0025,37.3918,274.718,349.8965,-0.0018228,-0.0002177,0.0,0 STARLINK-5994,1 56457U 23064K   24128.25001157 -.00021770  00000-0 -18228-2 0  9992,2 56457  70.0025  37.3918 0003229 274.7180 349.8965 14.98319879 55024,6950.224,96.108,574.333,569.845,0.0
56457.0,STARLINK-5994,PAYLOAD,2024-05-07 08:00:01,14.9832084,0.0003194,70.0024,37.1817,274.4773,79.5635,-0.0036852,-0.00043781,0.0,0 STARLINK-5994,1 56457U 23064K   24128.33335648 -.00043781  00000-0 -36852-2 0  9995,2 56457  70.0024  37.1817 0003194 274.4773  79.5635 14.98320840  5784,6950.221,96.108,574.306,569.866,0.0
56457.0,STARLINK-5994,PAYLOAD,2024-05-07 20:50:44,14.98337582,0.0002977,70.0008,35.8344,266.0601,94.0218,-0.00020357,-2.522e-05,0.0,0 STARLINK-5994,1 56457U 23064K   24128.86857011 -.00002522  00000-0 -20357-3 0  9998,2 56457  70.0008  35.8344 0002977 266.0601  94.0218 14.98337582 55124,6950.169,96.107,574.104,569.965,0.0
56457.0,STARLINK-5994,PAYLOAD,2024-05-07 22:26:52,14.98337224,0.0003037,70.0002,35.666,262.7268,97.3546,-0.00021494,-2.657e-05,0.0,0 STARLINK-5994,1 56457U 23064K   24128.93532983 -.00002657  00000-0 -21494-3 0  9996,2 56457  70.0002  35.6660 0003037 262.7268  97.3546 14.98337224 54770,6950.171,96.107,574.146,569.925,0.0
56457.0,STARLINK-5994,PAYLOAD,2024-05-08 11:15:56,14.98338123,0.0003128,70.0002,34.3168,267.0511,93.029,-0.000159,-1.99e-05,0.0,0 STARLINK-5994,1 56457U 23064K   24129.46940719 -.00001990  00000-0 -15900-3 0  9999,2 56457  70.0002  34.3168 0003128 267.0511  93.0290 14.98338123 54856,6950.168,96.106,574.207,569.859,0.0
56457.0,STARLINK-5994,PAYLOAD,2024-05-08 20:52:45,14.98329934,0.0003126,70.0004,33.3081,269.6468,90.4333,0.0002127,2.446e-05,0.0,0 STARLINK-5994,1 56457U 23064K   24129.86996586  .00002446  00000-0  21270-3 0  9998,2 56457  70.0004  33.3081 0003126 269.6468  90.4333 14.98329934 55274,6950.193,96.107,574.231,569.885,0.0
56457.0,STARLINK-5994,PAYLOAD,2024-05-08 22:28:52,14.98335453,0.0003369,69.9998,33.1397,269.0962,90.9811,3.6947e-05,3.48e-06,0.0,0 STARLINK-5994,1 56457U 23064K   24129.93672419  .00000348  00000-0  36947-4 0  9999,2 56457  69.9998  33.1397 0003369 269.0962  90.9811 14.98335453 54923,6950.176,96.107,574.383,569.7,0.0
56457.0,STARLINK-5994,PAYLOAD,2024-05-09 03:17:16,14.98344582,0.0003222,70.0002,32.6343,269.0605,91.0185,0.0001911,2.189e-05,0.0,0 STARLINK-5994,1 56457U 23064K   24130.13699737  .00002189  00000-0  19110-3 0  9992,2 56457  70.0002  32.6343 0003222 269.0605  91.0185 14.98344582 55312,6950.148,96.106,574.252,569.773,0.0
56457.0,STARLINK-5994,PAYLOAD,2024-05-09 11:17:57,14.98339882,0.0002937,70.002,31.7935,271.4275,88.6548,0.00024487,2.831e-05,0.0,0 STARLINK-5994,1 56457U 23064K   24130.47080167  .00002831  00000-0  24487-3 0  9997,2 56457  70.0020  31.7935 0002937 271.4275  88.6548 14.98339882 55368,6950.162,96.106,574.069,569.986,0.0
56457.0,STARLINK-5994,PAYLOAD,2024-05-09 20:54:46,14.98332941,0.000305,70.002,30.7828,270.1278,89.9531,0.00034626,4.041e-05,0.0,0 STARLINK-5994,1 56457U 23064K   24130.87136814  .00004041  00000-0  34626-3 0  9993,2 56457  70.0020  30.7828 0003050 270.1278  89.9531 14.98332941 55426,6950.184,96.107,574.169,569.929,0.0
56457.0,STARLINK-5994,PAYLOAD,2024-05-09 22:30:54,14.98332118,0.0003004,70.0022,30.6142,271.2688,88.8127,0.00035166,4.106e-05,0.0,0 STARLINK-5994,1 56457U 23064K   24130.93812844  .00004106  00000-0  35166-3 0  9996,2 56457  70.0022  30.6142 0003004 271.2688  88.8127 14.98332118 55078,6950.186,96.107,574.139,569.964,0.0
56457.0,STARLINK-5994,PAYLOAD,2024-05-10 14:00:01,14.98281258,0.0003118,70.0017,28.9876,270.9772,328.441,0.0073247,0.00088303,0.0,0 STARLINK-5994,1 56457U 23064K   24131.58334491  .00088303  00000-0  73247-2 0  9997,2 56457  70.0017  28.9876 0003118 270.9772 328.4410 14.98281258  5725,6950.344,96.11,574.376,570.042,0.0
56457.0,STARLINK-5994,PAYLOAD,2024-05-10 22:00:01,14.98354459,0.0003152,70.0017,28.1472,272.7828,324.1575,-0.0034588,-0.00041148,0.0,0 STARLINK-5994,1 56457U 23064K   24131.91668981 -.00041148  00000-0 -34588-2 0  9991,2 56457  70.0017  28.1472 0003152 272.7828 324.1575 14.98354459 55576,6950.117,96.105,574.173,569.792,0.0
56457.0,STARLINK-5994,PAYLOAD,2024-05-11 03:21:17,14.98360387,0.0002973,70.002,27.5841,272.0789,88.0029,0.00050492,5.941e-05,0.0,0 STARLINK-5994,1 56457U 23064K   24132.13978958  .00005941  00000-0  50492-3 0  9996,2 56457  70.0020  27.5841 0002973 272.0789  88.0029 14.98360387 55614,6950.099,96.105,574.03,569.898,0.0
56457.0,STARLINK-5994,PAYLOAD,2024-05-11 20:58:47,14.98272108,0.0003008,70.0025,25.7331,281.5224,78.5597,-0.0023849,-0.00028392,0.0,0 STARLINK-5994,1 56457U 23064K   24132.87416514 -.00028392  00000-0 -23849-2 0  9994,2 56457  70.0025  25.7331 0003008 281.5224  78.5597 14.98272108 55721,6950.372,96.111,574.328,570.146,0.0
56457.0,STARLINK-5994,PAYLOAD,2024-05-11 22:34:55,14.98268673,0.0002863,70.0017,25.5636,265.9114,94.1717,-0.0024475,-0.00029129,0.0,0 STARLINK-5994,1 56457U 23064K   24132.94092588 -.00029129  00000-0 -24475-2 0  9998,2 56457  70.0017  25.5636 0002863 265.9114  94.1717 14.98268673 55371,6950.383,96.111,574.237,570.258,0.0
56457.0,STARLINK-5994,PAYLOAD,2024-05-12 09:47:54,14.98246072,0.0002684,70.0023,24.3865,268.0544,92.0308,-0.0022191,-0.00026414,0.0,0 STARLINK-5994,1 56457U 23064K   24133.40827447 -.00026414  00000-0 -22191-2 0  9997,2 56457  70.0023  24.3865 0002684 268.0544  92.0308 14.98246072 55441,6950.452,96.112,574.183,570.452,0.0
56457.0,STARLINK-5994,PAYLOAD,2024-05-12 21:00:51,14.98300212,0.000243,70.0025,23.2086,251.5663,108.5232,7.8486e-05,8.43e-06,0.0,0 STARLINK-5994,1 56457U 23064K   24133.87559398  .00000843  00000-0  78486-4 0  9991,2 56457  70.0025  23.2086 0002430 251.5663 108.5232 14.98300212 55877,6950.285,96.109,573.839,570.461,0.0
56457.0,STARLINK-5994,PAYLOAD,2024-05-12 22:36:59,14.98301415,0.0002861,70.0017,23.0402,267.7535,92.3296,0.00020977,2.409e-05,0.0,0 STARLINK-5994,1 56457U 23064K   24133.94235529  .00002409  00000-0  20977-3 0  9997,2 56457  70.0017  23.0402 0002861 267.7535  92.3296 14.98301415 55521,6950.281,96.109,574.135,570.158,0.0
56457.0,STARLINK-5994,PAYLOAD,2024-05-13 09:49:56,14.98312345,0.0003229,70.0007,21.8617,265.2954,94.7837,0.0010358,0.00012282,0.0,0 STARLINK-5994,1 56457U 23064K   24134.40968371  .00012282  00000-0  10358-2 0  9998,2 56457  70.0007  21.8617 0003229 265.2954  94.7837 14.98312345 55599,6950.247,96.108,574.357,569.868,0.0
